number,name,city,state,country,postcode,latitude,longitude,offset,description,address_id
4048,Gruzecka,Oleksandrivsk,Hmelnicka,Ukraine,84756,78.4705,43.9953,0:00,"Western Europe Time, London, Lisbon, Casablanca",0
6442,Korkeavuorenkatu,Kesälahti,Northern Savonia,Finland,38182,26.5728,24.0936,-6:00,"Central Time (US & Canada), Mexico City",1
4481,Langbølgen,Bjerkvik,Rogaland,Norway,6076,-89.1752,-83.3600,+4:30,Kabul,2
4448,Viaducto Honduras,Villa Azueta,Sonora,Mexico,14830,-17.5129,102.0498,-5:00,"Eastern Time (US & Canada), Bogota, Lima",3
2284,Yuriya Lavrova,Pereshchepine,Harkivska,Ukraine,41862,78.7914,64.5463,-8:00,Pacific Time (US & Canada),4
5854,York Road,Westminster,Herefordshire,United Kingdom,H9 5UN,-43.0398,171.0121,-11:00,"Midway Island, Samoa",5
6156,Parker Rd,Rockhampton,Tasmania,Australia,8211,-44.7470,145.7010,+9:30,"Adelaide, Darwin",6
3347,Somwar Peth,Nagaon,Telangana,India,14210,-79.3377,30.7433,+10:00,"Eastern Australia, Guam, Vladivostok",7
4242,Grand Ave,Alma,Ontario,Canada,W4Q 0U0,-27.6109,116.5453,+4:00,"Abu Dhabi, Muscat, Baku, Tbilisi",8
3217,Korkeavuorenkatu,Jomala,Northern Savonia,Finland,46052,-7.3208,-109.4608,+10:00,"Eastern Australia, Guam, Vladivostok",9
7686,Spring St,Coffs Harbour,Queensland,Australia,1256,41.0274,-31.0857,-10:00,Hawaii,10
9243,Svrčinska,Boljevac,South Bačka,Serbia,62470,75.7164,-46.6619,+5:30,"Bombay, Calcutta, Madras, New Delhi",11
2436,Hickory Creek Dr,Busselton,Tasmania,Australia,1617,-44.2744,-94.3528,+7:00,"Bangkok, Hanoi, Jakarta",12
3949,Rue de la Baleine,Doppleschwand,Glarus,Switzerland,4378,12.1910,28.9840,+5:30,"Bombay, Calcutta, Madras, New Delhi",13
4650,Trinaestog Septembra,Crna Trava,Srem,Serbia,19033,-74.3726,57.6498,+4:00,"Abu Dhabi, Muscat, Baku, Tbilisi",14
1767,Pushkinskiy v'yizd,Bilozerske,Harkivska,Ukraine,58988,-51.4214,-91.3280,+4:00,"Abu Dhabi, Muscat, Baku, Tbilisi",15
7080,Rautatienkatu,Oripää,Southern Ostrobothnia,Finland,84630,-70.9406,-72.2209,+3:00,"Baghdad, Riyadh, Moscow, St. Petersburg",16
3500,Arctic Way,Cadillac,Québec,Canada,D8W 8A6,-41.5569,111.5353,+9:30,"Adelaide, Darwin",17
1817,E North St,Jackson,Tennessee,United States,43431,-30.2845,-113.2692,-3:30,Newfoundland,18
4126,Dame Street,Leixlip,Donegal,Ireland,31565,8.9549,5.6011,+9:30,"Adelaide, Darwin",19
9756,Galway Road,Kinsale,Cork City,Ireland,45009,37.9348,-176.4594,0:00,"Western Europe Time, London, Lisbon, Casablanca",20
260,Yaroslava Ivashkevicha,Skole,Dnipropetrovska,Ukraine,88247,14.9417,-0.8783,-3:30,Newfoundland,21
7391,Rue de Gerland,Roubaix,Hérault,France,19594,74.0394,158.0162,+4:30,Kabul,22
1429,Ronda de Toledo,Santiago de Compostela,Navarra,Spain,89449,30.9116,117.7382,+9:30,"Adelaide, Darwin",23
7394,Ashoka Rd,Darbhanga,Lakshadweep,India,86267,41.5319,-37.8237,+8:00,"Beijing, Perth, Singapore, Hong Kong",24
1993,Rue Chazière,Besançon,Jura,France,20797,-52.4536,26.5778,-5:00,"Eastern Time (US & Canada), Bogota, Lima",25
2711,Rue des Jardins,Orléans,Yonne,France,65678,-13.3322,4.6515,0:00,"Western Europe Time, London, Lisbon, Casablanca",26
9858,Androvačka,Leposavić,Bor,Serbia,75789,81.4067,-57.3955,+9:00,"Tokyo, Seoul, Osaka, Sapporo, Yakutsk",27
5969,Fitzgerald Avenue,Lower Hutt,West Coast,New Zealand,24689,-20.2258,-77.6596,-8:00,Pacific Time (US & Canada),28
4738,Fascinatio Boulevard,Kogerpolder,Zeeland,Netherlands,0229 JI,-17.3587,-7.9745,-11:00,"Midway Island, Samoa",29
1693,Rue du Stade,Reims,Mayenne,France,67966,28.9139,-125.6678,+4:00,"Abu Dhabi, Muscat, Baku, Tbilisi",30
39,Balladehof,Brucht,Drenthe,Netherlands,3963 BU,-47.4190,162.8342,+9:00,"Tokyo, Seoul, Osaka, Sapporo, Yakutsk",31
2227,Neptunveien,Gjerde,Oppland,Norway,3722,-71.2127,19.1332,+2:00,"Kaliningrad, South Africa",32
3374,Rua Treze ,Carapicuíba,Ceará,Brazil,35517,-4.3642,45.0896,+1:00,"Brussels, Copenhagen, Madrid, Paris",33
4384,Agnetevej,Sandved,Danmark,Denmark,22551,22.0071,71.9090,-3:00,"Brazil, Buenos Aires, Georgetown",34
7,Rue du Château,Giffers,Jura,Switzerland,8095,75.0190,-88.8906,+11:00,"Magadan, Solomon Islands, New Caledonia",35
91,Walnut Hill Ln,Mildura,South Australia,Australia,9771,-1.5946,139.9025,+3:00,"Baghdad, Riyadh, Moscow, St. Petersburg",36
5432,Maçka Cd,Yozgat,Konya,Turkey,96582,-15.0789,-122.8701,0:00,"Western Europe Time, London, Lisbon, Casablanca",37
6729,Rua Pernambuco ,Joinville,Amapá,Brazil,39609,-33.3146,-178.1424,+3:00,"Baghdad, Riyadh, Moscow, St. Petersburg",38
107,South Street,Stoke-on-Trent,Leicestershire,United Kingdom,L29 1HN,-2.4447,8.6163,+1:00,"Brussels, Copenhagen, Madrid, Paris",39
4823,Bryggegangen,Krossen,Finnmark - Finnmárku,Norway,8187,76.5095,126.3116,-6:00,"Central Time (US & Canada), Mexico City",40
2564,Ekornveien,Snurråsen,Hordaland,Norway,9471,66.4031,-116.3202,+1:00,"Brussels, Copenhagen, Madrid, Paris",41
9336,Østermarksvej,København S,Nordjylland,Denmark,57278,-35.7441,-170.6594,-11:00,"Midway Island, Samoa",42
2334,Hrestoviy provulok,Tulchin,Volinska,Ukraine,12522,66.8001,156.7611,+2:00,"Kaliningrad, South Africa",43
4304,Stanley Road,Dundee,Dorset,United Kingdom,D4 8AP,-48.8964,-100.9807,-5:00,"Eastern Time (US & Canada), Bogota, Lima",44
5700,Anatoliya Kukobi,Druzhba,Zakarpatska,Ukraine,94920,54.5704,-106.6079,-3:00,"Brazil, Buenos Aires, Georgetown",45
6667,Mahia Road,Greymouth,Nelson,New Zealand,27532,56.4034,120.4453,-2:00,Mid-Atlantic,46
9128,Pasaje Irlanda,San Ignacio,Tlaxcala,Mexico,60471,-49.6478,50.7098,+5:30,"Bombay, Calcutta, Madras, New Delhi",47
6390,Chervoniy Maydan,Gayvoron,Kiyivska,Ukraine,50734,-22.3701,143.8940,+11:00,"Magadan, Solomon Islands, New Caledonia",48
3404,Zlatanovićev Sokak,Kosjerić,Central Banat,Serbia,95685,66.5145,15.1163,-7:00,Mountain Time (US & Canada),49
4486,Pakuranga Road,Dunedin,Waikato,New Zealand,43330,67.5152,161.5461,-4:00,"Atlantic Time (Canada), Caracas, La Paz",50
850,Callejón Chiapas,Col. 28 de Mayo (Santa Rosa),Colima,Mexico,30587,60.6836,-73.8138,+3:30,Tehran,51
4274,Hemkewerfweg,Heemserveen,Groningen,Netherlands,1096 TD,-79.3743,-141.5742,-1:00,"Azores, Cape Verde Islands",52
7081,Rue des Cuirassiers,Marchissy,Glarus,Switzerland,6290,46.5063,-147.8062,-10:00,Hawaii,53
7979,Seymour Street,Lower Hutt,Otago,New Zealand,38541,-74.5091,-158.8368,+1:00,"Brussels, Copenhagen, Madrid, Paris",54
2481,Cavallilaan,Gaastmeer,Overijssel,Netherlands,2711 HZ,22.1545,-104.8289,-12:00,"Eniwetok, Kwajalein",55
5278,کوی نصر,خرم‌آباد,آذربایجان شرقی,Iran,50323,-74.3267,43.3500,+5:45,Kathmandu,56
9185,Route de Genas,Argenteuil,Nièvre,France,36902,4.4684,-10.3711,+1:00,"Brussels, Copenhagen, Madrid, Paris",57
7421,Rotuaari,Kimitoön,South Karelia,Finland,73757,-80.2433,-99.1483,-3:30,Newfoundland,58
3136,Baydi Vishneveckogo,Gulyaypole,Volinska,Ukraine,46526,-58.0470,128.9948,-12:00,"Eniwetok, Kwajalein",59
6245,Griffenfeldts gate,Lofthus,Trøndelag,Norway,9771,12.2115,-150.2579,-8:00,Pacific Time (US & Canada),60
771,Fatih Sultan Mehmet Cd,Şanlıurfa,Konya,Turkey,31574,-55.6409,-77.9290,+2:00,"Kaliningrad, South Africa",61
8148,South Street,Salford,Hampshire,United Kingdom,A1 3SJ,41.7545,-103.4110,+10:00,"Eastern Australia, Guam, Vladivostok",62
606,Hämeentie,Forssa,Finland Proper,Finland,32490,-58.3926,52.3303,+3:00,"Baghdad, Riyadh, Moscow, St. Petersburg",63
3485,Pecan Acres Ln,Sydney,Northern Territory,Australia,1435,-89.8895,108.0887,+5:00,"Ekaterinburg, Islamabad, Karachi, Tashkent",64
387,Prolongación Anguiano,Gómez Farías,Durango,Mexico,98860,2.7934,42.0826,+11:00,"Magadan, Solomon Islands, New Caledonia",65
2480,Het Zandstuk,Stein Lb,Zuid-Holland,Netherlands,5799 UL,-81.0671,-130.7186,-3:00,"Brazil, Buenos Aires, Georgetown",66
6916,Ampliación Finlandia,Santiago Tlapacoya,Ciudad de Mexico,Mexico,41662,72.2087,173.3864,+8:00,"Beijing, Perth, Singapore, Hong Kong",67
8863,Şehitler Cd,Çorum,Çanakkale,Turkey,73227,-2.4087,-11.3674,-3:00,"Brazil, Buenos Aires, Georgetown",68
6868,Maçka Cd,Konya,Karabük,Turkey,47293,18.8813,0.1428,-1:00,"Azores, Cape Verde Islands",69
7319,Knudskovparken,Saltum,Syddanmark,Denmark,97717,86.1628,-28.0787,-12:00,"Eniwetok, Kwajalein",70
7432,Dorfstraße,Enger,Nordrhein-Westfalen,Germany,57288,34.6597,-81.6864,-11:00,"Midway Island, Samoa",71
1226,Žel Stanica Makiš Ranžirna,Apatin,North Bačka,Serbia,46938,-72.7469,95.4622,-11:00,"Midway Island, Samoa",72
8146,Herbert Road,Monaghan,Sligo,Ireland,17576,-25.0396,26.3440,-11:00,"Midway Island, Samoa",73
9232,Lyubimivska,Zavodske,Donecka,Ukraine,85679,63.1553,-2.7593,+3:00,"Baghdad, Riyadh, Moscow, St. Petersburg",74
3296,Talak Göktepe Cd,Hakkâri,Aydın,Turkey,53855,34.7156,83.0076,-4:00,"Atlantic Time (Canada), Caracas, La Paz",75
1686,Mevlana Cd,Erzincan,Kastamonu,Turkey,20584,-49.7615,-6.3572,-3:00,"Brazil, Buenos Aires, Georgetown",76
7483,Rue du Stade,Nancy,Isère,France,13380,58.8976,49.3636,+1:00,"Brussels, Copenhagen, Madrid, Paris",77
6251,Rua Bela Vista ,Parintins,São Paulo,Brazil,21344,41.5007,147.8928,-2:00,Mid-Atlantic,78
5216,Simcoe St,Campbellton,Northwest Territories,Canada,B8Z 9H9,-78.9356,25.9569,+4:00,"Abu Dhabi, Muscat, Baku, Tbilisi",79
1789,Rua Amazonas ,Alvorada,Rio de Janeiro,Brazil,89569,89.7718,-16.2770,+6:00,"Almaty, Dhaka, Colombo",80
7816,Forest Ln,Gainesville,North Dakota,United States,58313,82.6332,-103.8992,-3:30,Newfoundland,81
2877,Rue de L'Abbé-Grégoire,Schmitten (Fr),Bern,Switzerland,4926,23.7813,-14.5651,-1:00,"Azores, Cape Verde Islands",82
5242,Mill Road,Exeter,Devon,United Kingdom,Y1 7QY,-21.3192,95.3514,-7:00,Mountain Time (US & Canada),83
5988,Rue du Village,Mörel-Filet,Ticino,Switzerland,9920,79.3820,-41.7955,+4:00,"Abu Dhabi, Muscat, Baku, Tbilisi",84
4784,Mill Lane,Kells,Donegal,Ireland,95832,-20.1885,174.6056,-4:00,"Atlantic Time (Canada), Caracas, La Paz",85
8996,Pirkankatu,Hanko,Northern Savonia,Finland,10185,47.4700,-144.5467,-5:00,"Eastern Time (US & Canada), Bogota, Lima",86
9542,Bay Ave,Victoria,Saskatchewan,Canada,P0N 0G0,52.0925,113.8931,-11:00,"Midway Island, Samoa",87
2217,Amselweg,Limburg an der Lahn,Bremen,Germany,58432,40.5586,-165.2976,-10:00,Hawaii,88
3201,Desetog Oktobra,Kruševac,Zaječar,Serbia,80859,14.2031,-48.0493,+4:30,Kabul,89
125,Brorsonsvej,Sønder Stenderup,Syddanmark,Denmark,71106,17.6464,103.4615,-4:00,"Atlantic Time (Canada), Caracas, La Paz",90
5145,De Spieker,Krewerd,Gelderland,Netherlands,0058 VX,5.6053,101.3740,-8:00,Pacific Time (US & Canada),91
1000,Cedar St,Carleton,Saskatchewan,Canada,P2W 4P6,72.5776,50.4429,-7:00,Mountain Time (US & Canada),92
9043,Pages Road,Nelson,Gisborne,New Zealand,23194,-26.3295,87.9769,+8:00,"Beijing, Perth, Singapore, Hong Kong",93
3089,Rua São Luiz ,Luziânia,Pernambuco,Brazil,13776,41.2421,-70.9144,+11:00,"Magadan, Solomon Islands, New Caledonia",94
3279,Pyynikintie,Miehikkälä,Uusimaa,Finland,94722,-6.1637,20.9863,+9:00,"Tokyo, Seoul, Osaka, Sapporo, Yakutsk",95
4791,High Street,Portmarnock,Westmeath,Ireland,57869,-80.8714,-173.6743,+3:30,Tehran,96
3761,Hunters Creek Dr,Geelong,Northern Territory,Australia,5677,-0.3596,128.2036,-4:00,"Atlantic Time (Canada), Caracas, La Paz",97
6200,Marka Končara-bure,Žitište,Pirot,Serbia,30155,26.2434,-127.0610,-5:00,"Eastern Time (US & Canada), Bogota, Lima",98
6677,Oxford Terrace,Christchurch,Bay of Plenty,New Zealand,18076,85.9280,43.5320,+1:00,"Brussels, Copenhagen, Madrid, Paris",99
1765,Hämeenkatu,Soini,Southern Savonia,Finland,89341,83.6601,-61.0156,+7:00,"Bangkok, Hanoi, Jakarta",100
1400,Rue des Écoles,Pau,Aveyron,France,67443,-76.5654,-177.3918,+3:30,Tehran,101
5864,Rua Paraná ,Guarapari,Roraima,Brazil,68775,14.5379,-15.2803,-10:00,Hawaii,102
9985,Golovniy provulok,Vinnicya,Poltavska,Ukraine,77528,-12.7105,76.3544,+4:00,"Abu Dhabi, Muscat, Baku, Tbilisi",103
4779,Rua Boa Vista ,Guarulhos,Roraima,Brazil,90996,-68.4011,-75.0381,+1:00,"Brussels, Copenhagen, Madrid, Paris",104
3594,Avenue Vauban,Rüti (Zh),Nidwalden,Switzerland,5476,-65.4318,-151.6709,-10:00,Hawaii,105
5243,Anna Teding van Berkhoutstraat,Hoorn Terschelling,Overijssel,Netherlands,1543 SF,-38.7436,95.5066,+6:00,"Almaty, Dhaka, Colombo",106
8624,پاسداران,بوشهر,اصفهان,Iran,15132,37.0125,-77.2823,+1:00,"Brussels, Copenhagen, Madrid, Paris",107
6415,Route de Genas,Strasbourg,Indre-et-Loire,France,20883,-16.3124,-153.1148,+7:00,"Bangkok, Hanoi, Jakarta",108
6808,Kirchweg,Schwaigern,Sachsen-Anhalt,Germany,31772,-68.0958,-110.5786,+8:00,"Beijing, Perth, Singapore, Hong Kong",109
4183,Vejlby Toften,Kongsvinger,Danmark,Denmark,61439,51.4540,60.9627,+9:00,"Tokyo, Seoul, Osaka, Sapporo, Yakutsk",110
324,Boulevard de Balmont,Argenteuil,Mayotte,France,87018,87.8311,147.5336,+5:30,"Bombay, Calcutta, Madras, New Delhi",111
1415,کارگر,گلستان,سیستان و بلوچستان,Iran,67140,23.7724,29.5594,+4:30,Kabul,112
5683,Moray Place,Nelson,Auckland,New Zealand,45769,-82.7382,-153.9723,-8:00,Pacific Time (US & Canada),113
3615,Swargate,Hyderabad,Uttar Pradesh,India,47300,-25.7703,73.5000,+6:00,"Almaty, Dhaka, Colombo",114
717,Klostergata,Tynset,Telemark,Norway,5545,-25.3637,127.9881,+10:00,"Eastern Australia, Guam, Vladivostok",115
9225,Istiklal Cd,Sinop,Tokat,Turkey,42851,29.5214,106.5699,+7:00,"Bangkok, Hanoi, Jakarta",116
8501,Rue de L'Abbaye,Guggisberg,Bern,Switzerland,8683,81.3184,-145.4516,+3:30,Tehran,117
1681,Rue Victor-Hugo,Luthern,Genève,Switzerland,7153,33.1990,-42.1335,-3:30,Newfoundland,118
6807,Esplanadi,Kauhava,Kainuu,Finland,25814,38.0627,-93.5458,+7:00,"Bangkok, Hanoi, Jakarta",119
9697,Tesarska,Novi Pazar,West Bačka,Serbia,49035,-37.7285,88.8480,-11:00,"Midway Island, Samoa",120
1015,Eason Rd,Kent,West Virginia,United States,32151,24.8636,119.5152,+2:00,"Kaliningrad, South Africa",121
5513,Uelands gate,Hamar,Buskerud,Norway,1878,19.7862,-105.5990,+11:00,"Magadan, Solomon Islands, New Caledonia",122
7277,30 تیر,کرمان,یزد,Iran,34433,16.0672,-140.9171,+5:45,Kathmandu,123
2889,Darvina,Gorodok,Volinska,Ukraine,17036,-7.1079,-174.3060,+2:00,"Kaliningrad, South Africa",124
7429,Pali Hill,Bhatpara,Uttar Pradesh,India,54896,-26.6748,-41.1127,+5:45,Kathmandu,125
3564,Beco dos Namorados,Mogi Guaçu,Santa Catarina,Brazil,22766,-47.5750,-28.1568,-12:00,"Eniwetok, Kwajalein",126
8203,Doktorlar Cd,Bingöl,Konya,Turkey,31841,3.6820,-16.4728,-6:00,"Central Time (US & Canada), Mexico City",127
90,Mint St,Loni,Daman and Diu,India,42397,85.3846,-30.8267,-10:00,Hawaii,128
2601,Rua Boa Vista ,Coronel Fabriciano,São Paulo,Brazil,49826,73.3962,-67.3223,+11:00,"Magadan, Solomon Islands, New Caledonia",129
2108,Korpanyukiv,Genichesk,Lvivska,Ukraine,17286,17.3989,-65.9355,-5:00,"Eastern Time (US & Canada), Bogota, Lima",130
9952,Victoria Ave,Deer Lake,New Brunswick,Canada,P3D 4J0,-13.3945,-58.6977,+3:30,Tehran,131
900,Bessenvlinderstraat,Cadier en Keer,Utrecht,Netherlands,4723 RA,-79.5354,-135.8854,-9:00,Alaska,132
1498,Rua São Jorge ,Sorocaba,Distrito Federal,Brazil,10548,43.2282,-39.4404,-12:00,"Eniwetok, Kwajalein",133
33,Rue Bataille,Vaux-sur-Morges,Basel-Landschaft,Switzerland,3284,22.6697,-124.2744,+7:00,"Bangkok, Hanoi, Jakarta",134
4982,Dragojla Dudića,Bečej,Zaječar,Serbia,56122,10.8018,152.3766,0:00,"Western Europe Time, London, Lisbon, Casablanca",135
2390,Rasta Peth,Faridabad,Odisha,India,62089,86.0881,90.8817,-10:00,Hawaii,136
2769,Ladeveien,Røra Stasjon,Trøndelag,Norway,3172,-73.8311,84.8548,+3:30,Tehran,137
9405,Ballevej,Nørrebro,Danmark,Denmark,96464,0.1337,-55.5033,+3:00,"Baghdad, Riyadh, Moscow, St. Petersburg",138
8391,Holmenveien,Isfjorden,Telemark,Norway,6820,-85.4847,-6.9070,-7:00,Mountain Time (US & Canada),139
1347,Kazimar St,Nangloi Jat,Gujarat,India,76041,-28.2186,20.4656,-3:00,"Brazil, Buenos Aires, Georgetown",140
5711,Church Lane,Youghal,Mayo,Ireland,13074,-10.0015,166.3642,-7:00,Mountain Time (US & Canada),141
8817,Bandstand Promenade,Bijapur,Chandigarh,India,85412,-75.0916,-150.6656,+10:00,"Eastern Australia, Guam, Vladivostok",142
379,Rua Dezessete ,Campo Largo,Tocantins,Brazil,54025,73.6172,-55.9721,-7:00,Mountain Time (US & Canada),143
1900,Diagonal Oaxaca,Hueypoxtla,Estado de Mexico,Mexico,40297,44.1025,-67.9519,-2:00,Mid-Atlantic,144
3560,Fatih Sultan Mehmet Cd,Uşak,Konya,Turkey,55485,-43.1817,-121.6810,+11:00,"Magadan, Solomon Islands, New Caledonia",145
9652,Mechelininkatu,Laukaa,Ostrobothnia,Finland,45531,-60.0699,-56.7086,-6:00,"Central Time (US & Canada), Mexico City",146
7650,Partizanski Sastanak,Kosjerić,Bor,Serbia,32663,-8.2761,29.6204,0:00,"Western Europe Time, London, Lisbon, Casablanca",147
6128,Green Lane,Leixlip,Roscommon,Ireland,93669,79.0056,-76.9892,+4:30,Kabul,148
7430,Callejón Mauricio,Ruben Jaramillo,Jalisco,Mexico,76379,-54.0891,9.8612,-3:30,Newfoundland,149
8635,Rue de la Mairie,Champigny-sur-Marne,Jura,France,47256,-37.6821,-53.6021,+3:00,"Baghdad, Riyadh, Moscow, St. Petersburg",150
6407,Ågerupvej,Støvring ,Syddanmark,Denmark,93270,11.2845,-142.2561,+10:00,"Eastern Australia, Guam, Vladivostok",151
7448,Vellala St,Agra,Tripura,India,76833,-82.0705,95.3603,+11:00,"Magadan, Solomon Islands, New Caledonia",152
4409,Žila Verna,Jagodina,Kosovska Mitrovica,Serbia,20892,59.5058,-21.8004,-11:00,"Midway Island, Samoa",153
3908,Calle del Barquillo,San Sebastián de Los Reyes,Navarra,Spain,36892,51.5936,-45.9377,0:00,"Western Europe Time, London, Lisbon, Casablanca",154
4167,Fergusson Drive,Timaru,Manawatu-Wanganui,New Zealand,68661,38.0719,23.8198,+1:00,"Brussels, Copenhagen, Madrid, Paris",155
6200,Diagonal Sur Bañuelos,Colombia,Aguascalientes,Mexico,10326,16.9167,-77.0352,-3:00,"Brazil, Buenos Aires, Georgetown",156
856,36th Ave,Clinton,New Brunswick,Canada,O7S 3L9,-35.4663,122.4958,-3:30,Newfoundland,157
2857,Corredor Tlaxcala,San Agustín Amatengo,Aguascalientes,Mexico,71718,43.2067,165.5642,-5:00,"Eastern Time (US & Canada), Bogota, Lima",158
9533,Fynsgade,Beder,Nordjylland,Denmark,10115,17.7809,119.5761,-12:00,"Eniwetok, Kwajalein",159
8136,Chaman Ganj,Thrissur,Telangana,India,20017,58.0888,-95.1710,-10:00,Hawaii,160
7613,Hatanpään Valtatie,Parkano,Satakunta,Finland,12097,43.2104,-114.8103,+6:00,"Almaty, Dhaka, Colombo",161
5957,Myllypuronkatu,Ylitornio,Finland Proper,Finland,46356,-46.3506,143.8848,+10:00,"Eastern Australia, Guam, Vladivostok",162
6684,Avenida de La Albufera,Málaga,Castilla la Mancha,Spain,60685,-42.1440,-145.1239,+1:00,"Brussels, Copenhagen, Madrid, Paris",163
4244,Osmog Marta,Žabalj,Srem,Serbia,20513,15.4831,-121.9526,-1:00,"Azores, Cape Verde Islands",164
5717,Talak Göktepe Cd,Kayseri,Mersin,Turkey,61862,23.6675,-151.4329,+5:45,Kathmandu,165
2136,Rucka,Požarevac,Toplica,Serbia,58309,-48.5021,153.9881,+1:00,"Brussels, Copenhagen, Madrid, Paris",166
3111,Buchenweg,Marbach am Neckar,Hamburg,Germany,89961,-6.8013,-25.7362,+11:00,"Magadan, Solomon Islands, New Caledonia",167
9242,Raiffeisenstraße,Brüel,Saarland,Germany,75898,71.3295,-40.5657,+5:45,Kathmandu,168
108,Calle de Ferraz,Logroño,La Rioja,Spain,37542,-45.4975,-108.8752,-9:00,Alaska,169
7702,Church Lane,Aberdeen,Oxfordshire,United Kingdom,D9L 4WY,-42.5118,-39.6484,-8:00,Pacific Time (US & Canada),170
7089,Hämeentie,Vaala,Northern Savonia,Finland,74235,67.3180,-131.8156,+4:30,Kabul,171
8922,Rua Vinte E Quatro de Outubro,Criciúma,Ceará,Brazil,69021,24.0893,93.1225,+3:30,Tehran,172
175,Grove Road,Dublin,Waterford,Ireland,22133,-70.4138,2.3528,+9:00,"Tokyo, Seoul, Osaka, Sapporo, Yakutsk",173
1446,Park Road,Gloucester,East Sussex,United Kingdom,S78 9DT,-29.9085,64.4217,-7:00,Mountain Time (US & Canada),174
1702,میدان صادقیه,سنندج,بوشهر,Iran,93322,-64.6174,12.3172,-2:00,Mid-Atlantic,175
2431,Mannerheimintie,Kitee,Ostrobothnia,Finland,13638,-78.9789,19.6943,-3:00,"Brazil, Buenos Aires, Georgetown",176
9918,Rylevej,Kongens  Lyngby,Hovedstaden,Denmark,59732,29.5889,44.6220,+11:00,"Magadan, Solomon Islands, New Caledonia",177
9484,Calle del Prado,Málaga,Galicia,Spain,77009,-52.9289,106.0966,-9:00,Alaska,178
5443,Anzac Parade,Rotorua,Wellington,New Zealand,40420,-84.1827,68.4298,-10:00,Hawaii,179
4640,Avenue Debourg,Strasbourg,Moselle,France,50282,-64.6655,-80.9639,-5:00,"Eastern Time (US & Canada), Bogota, Lima",180
7808,The Grove,Letterkenny,Sligo,Ireland,37291,40.6290,-18.9974,-12:00,"Eniwetok, Kwajalein",181
2398,Skoleparken,Gl. Rye,Syddanmark,Denmark,66254,30.8356,140.2280,+4:00,"Abu Dhabi, Muscat, Baku, Tbilisi",182
2986,Mill Lane,Cardiff,Norfolk,United Kingdom,M21 8YE,-48.4721,-127.2214,+3:00,"Baghdad, Riyadh, Moscow, St. Petersburg",183
3884,Henri Knapstraat,Tongerlo,Zuid-Holland,Netherlands,4599 ZU,31.9792,-82.0327,-2:00,Mid-Atlantic,184
782,Tashkentska,Radomishl,Kirovogradska,Ukraine,54215,-43.6005,-56.3347,+9:30,"Adelaide, Darwin",185
8383,Raiffeisenstraße,Freyung-Grafenau,Saarland,Germany,97859,21.3997,3.8574,-4:00,"Atlantic Time (Canada), Caracas, La Paz",186
6964,Rue des Jardins,Fischenthal,Fribourg,Switzerland,4499,73.2672,127.3995,+3:00,"Baghdad, Riyadh, Moscow, St. Petersburg",187
4782,Schulstraße,Tambach-Dietharz,Sachsen,Germany,35984,-58.8009,134.7667,+9:30,"Adelaide, Darwin",188
4900,Samsøvej,Amager,Sjælland,Denmark,61306,-25.2327,-34.5564,-9:00,Alaska,189
7289,Rotuaari,Kauhava,Lapland,Finland,47774,-2.4823,28.6059,-2:00,Mid-Atlantic,190
68,Micheletveien,Olden,Vestfold,Norway,3185,72.7799,23.1101,+5:00,"Ekaterinburg, Islamabad, Karachi, Tashkent",191
1590,Frances Ct,Shreveport,Indiana,United States,27858,-73.8472,120.9362,+5:30,"Bombay, Calcutta, Madras, New Delhi",192
4257,Agneshove,Haghorst,Noord-Holland,Netherlands,8675 LL,54.4777,-134.9983,-1:00,"Azores, Cape Verde Islands",193
7773,Satakennankatu,Kauhava,Ostrobothnia,Finland,65563,-64.6079,167.7818,+5:30,"Bombay, Calcutta, Madras, New Delhi",194
4869,Rectory Lane,Portsmouth,Northumberland,United Kingdom,WG2 8UU,-41.6064,67.2477,-10:00,Hawaii,195
7599,Rue Bony,Amiens,Oise,France,80786,1.8488,165.4617,+5:45,Kathmandu,196
5759,Thornridge Cir,Stamford,Tennessee,United States,28507,-23.5552,-91.3877,+7:00,"Bangkok, Hanoi, Jakarta",197
814,Rue Duguesclin,Hellsau,Ticino,Switzerland,4438,31.8177,4.2313,+11:00,"Magadan, Solomon Islands, New Caledonia",198
6390,Robinson Rd,Mackay,Australian Capital Territory,Australia,5570,-25.1319,-10.1660,+3:30,Tehran,199
1514,Calle de Argumosa,Lugo,Castilla la Mancha,Spain,36931,16.6043,27.8679,+2:00,"Kaliningrad, South Africa",200
6484,Porodice Stojanović,Subotica,Pčinja,Serbia,11836,37.1786,-130.9208,+5:45,Kathmandu,201
5552,ایران,قائم‌شهر,آذربایجان شرقی,Iran,46648,30.5380,77.3858,+9:30,"Adelaide, Darwin",202
67,Calle de Atocha,Hospitalet de Llobregat,Castilla la Mancha,Spain,89685,19.3813,24.7168,-7:00,Mountain Time (US & Canada),203
1017,Quai Charles-De-Gaulle,Bedano,Basel-Stadt,Switzerland,4142,-89.4151,-33.3153,+2:00,"Kaliningrad, South Africa",204
7636,Mannerheimintie,Pello,Northern Savonia,Finland,65065,-21.7025,15.9410,+8:00,"Beijing, Perth, Singapore, Hong Kong",205
4246,Richmond Park,Tralee,Dún Laoghaire–Rathdown,Ireland,52249,-20.7070,165.3508,-5:00,"Eastern Time (US & Canada), Bogota, Lima",206
4189,Ranganathan St,Serampore,Tamil Nadu,India,26087,-86.6057,123.8041,+9:30,"Adelaide, Darwin",207
6633,Gloucester Street,Whanganui,Manawatu-Wanganui,New Zealand,55138,14.7375,10.3889,+4:00,"Abu Dhabi, Muscat, Baku, Tbilisi",208
5279,Erfstraat,Zandeweer,Flevoland,Netherlands,9809 OF,-87.4879,172.8044,+3:00,"Baghdad, Riyadh, Moscow, St. Petersburg",209
3426,W 6th St,Torrance,Washington,United States,47651,41.9977,-168.3580,+7:00,"Bangkok, Hanoi, Jakarta",210
2194,امیرکبیر,زاهدان,گلستان,Iran,14742,-32.3258,143.2747,-8:00,Pacific Time (US & Canada),211
4734,Eje vial Gambia,Ciudad Morelos (Cuervos),Nayarit,Mexico,68842,-45.5165,4.1811,-4:00,"Atlantic Time (Canada), Caracas, La Paz",212
8114,Oak St,Sherbrooke,Nova Scotia,Canada,J7M 7W8,-18.4611,29.0155,+7:00,"Bangkok, Hanoi, Jakarta",213
1817,Fyrrevænget,Ryslinge,Nordjylland,Denmark,34811,74.5346,-112.1107,+11:00,"Magadan, Solomon Islands, New Caledonia",214
9290,Place de L'Europe,Argenteuil,Loire-Atlantique,France,30003,-78.3729,168.5916,+3:30,Tehran,215
3444,North Street,Canterbury,Surrey,United Kingdom,V9 4AL,81.5842,-154.1995,+11:00,"Magadan, Solomon Islands, New Caledonia",216
9759,Kloppenstraat,Rossum Gld,Noord-Holland,Netherlands,8878 LC,88.1728,66.7116,+4:00,"Abu Dhabi, Muscat, Baku, Tbilisi",217
9389,Ratha Bheedi,Bhind,Arunachal Pradesh,India,17911,62.2664,164.5462,+5:30,"Bombay, Calcutta, Madras, New Delhi",218
8168,Vishgorodska,Armyansk,Hmelnicka,Ukraine,90134,24.5602,3.4334,-8:00,Pacific Time (US & Canada),219
7221,Vekslerveien,Skjærhalden,Trøndelag,Norway,6419,-74.8890,-76.4389,-5:00,"Eastern Time (US & Canada), Bogota, Lima",220
7455,Sampige Rd,Satara,Tripura,India,46459,-62.7918,-173.1263,-5:00,"Eastern Time (US & Canada), Bogota, Lima",221
2197,Saddle Dr,Nowra,Tasmania,Australia,3527,-58.3707,-104.4573,-12:00,"Eniwetok, Kwajalein",222
5153,Mill Road,Thurles,Meath,Ireland,74564,-81.2894,119.3212,-9:00,Alaska,223
7848,Dublin Road,Laytown-Bettystown-Mornington,South Dublin,Ireland,64838,60.9136,-57.4453,-7:00,Mountain Time (US & Canada),224
631,Engparken,Nr Åby,Nordjylland,Denmark,90611,-41.8230,-69.5101,+3:30,Tehran,225
1879,Hoge Weide,Rinsumageest,Flevoland,Netherlands,1812 RO,-82.1273,132.8348,+6:00,"Almaty, Dhaka, Colombo",226
8415,NAD X Rd,Farrukhabad,Gujarat,India,44060,42.1362,126.5407,+5:00,"Ekaterinburg, Islamabad, Karachi, Tashkent",227
8387,Jochemstraat,Haaksbergen,Utrecht,Netherlands,5344 RW,-67.8138,-72.6506,+3:00,"Baghdad, Riyadh, Moscow, St. Petersburg",228
4112,Bijlhouwerstraat,Geesteren Ov,Friesland,Netherlands,6258 UM,-70.6506,7.5180,-1:00,"Azores, Cape Verde Islands",229
5588,Kiefernweg,Passau,Bayern,Germany,82154,82.0535,33.3749,+4:00,"Abu Dhabi, Muscat, Baku, Tbilisi",230
4295,Place du 8 Novembre 1942,Zizers,Schaffhausen,Switzerland,4783,26.8270,-133.2585,-5:00,"Eastern Time (US & Canada), Bogota, Lima",231
9416,Rua Das Flores ,Fortaleza,Pará,Brazil,30066,-86.0656,-51.7032,+3:00,"Baghdad, Riyadh, Moscow, St. Petersburg",232
831,Groene Jonkerstraat,Geysteren,Flevoland,Netherlands,0802 LV,-40.4381,-62.1940,-5:00,"Eastern Time (US & Canada), Bogota, Lima",233
7457,Peatonal Distrito Federal,Nio,Tlaxcala,Mexico,13890,-73.6117,-137.6767,+7:00,"Bangkok, Hanoi, Jakarta",234
7198,Fatih Sultan Mehmet Cd,Kırıkkale,Osmaniye,Turkey,60415,-57.6945,150.0287,+9:30,"Adelaide, Darwin",235
9963,Fairview St,Anaheim,South Dakota,United States,83869,47.3444,103.7416,+5:30,"Bombay, Calcutta, Madras, New Delhi",236
5539,Jan Mensinghstraat,Ede,Flevoland,Netherlands,3243 LY,-10.3460,-20.5063,+1:00,"Brussels, Copenhagen, Madrid, Paris",237
8014,Avenue des Ternes,Aulnay-sous-Bois,Ardèche,France,49535,2.5673,140.7584,+4:00,"Abu Dhabi, Muscat, Baku, Tbilisi",238
2762,Church Street,Wexford,Offaly,Ireland,33180,-51.2226,-155.6870,-4:00,"Atlantic Time (Canada), Caracas, La Paz",239
8488,Rua Pará ,Diadema,Mato Grosso,Brazil,19820,55.9717,-130.3577,+4:30,Kabul,240
7389,Mannerheimintie,Valtimo,Pirkanmaa,Finland,23482,-68.7962,74.1134,+9:00,"Tokyo, Seoul, Osaka, Sapporo, Yakutsk",241
355,Petrickogo,Svyatogirsk,Ivano-Frankivska,Ukraine,78170,51.2491,-64.9414,-10:00,Hawaii,242
1543,Im Winkel,Halle (Saale),Rheinland-Pfalz,Germany,56057,-56.2914,-150.2954,+1:00,"Brussels, Copenhagen, Madrid, Paris",243
3824,Kongsstien,Bangsund,Trøndelag,Norway,1806,66.5850,7.0215,+3:30,Tehran,244
2367,Privada Oquendo,San Lorenzo Malacota,Tamaulipas,Mexico,76854,-81.3333,-167.8682,+3:30,Tehran,245
9091,De Oerslach,Glimmen,Noord-Brabant,Netherlands,0761 EC,-73.8896,-40.2864,-9:00,Alaska,246
1784,Rua Amazonas ,Campinas,Distrito Federal,Brazil,46918,20.1660,67.8683,-8:00,Pacific Time (US & Canada),247
1449,Avenida de Castilla,Oviedo,Castilla la Mancha,Spain,36969,73.6472,-159.2771,+5:00,"Ekaterinburg, Islamabad, Karachi, Tashkent",248
7985,Lovers Ln,Akron,Florida,United States,80273,-7.7208,-146.3677,-7:00,Mountain Time (US & Canada),249
6468,Lørenveien,Øverbø,Sør-Trøndelag,Norway,5353,31.5468,94.5380,-7:00,Mountain Time (US & Canada),250
6053,Viaducto Yucatán,San Felipe,Ciudad de Mexico,Mexico,59623,-73.0553,-93.9871,+1:00,"Brussels, Copenhagen, Madrid, Paris",251
6158,Rautatienkatu,Pöytyä,Southern Ostrobothnia,Finland,82706,69.5528,-159.3766,-4:00,"Atlantic Time (Canada), Caracas, La Paz",252
655,Avenue des Ternes,Nice,Haute-Loire,France,79062,7.2438,-103.2013,+6:00,"Almaty, Dhaka, Colombo",253
75,St. Jørgens vei,Hogsetfeltet,Hordaland,Norway,2610,65.2572,-52.7703,-10:00,Hawaii,254
5971,Amselweg,Petershagen,Hamburg,Germany,40485,-0.7382,57.2505,-3:00,"Brazil, Buenos Aires, Georgetown",255
2934,Provulok Marshaka,Bershad,Ternopilska,Ukraine,32962,-45.3881,56.8795,-5:00,"Eastern Time (US & Canada), Bogota, Lima",256
4586,West Coast Road,Whanganui,Otago,New Zealand,47557,-61.3732,151.0510,-12:00,"Eniwetok, Kwajalein",257
9633,Washington Ave,Tamworth,Queensland,Australia,3504,36.7801,77.3354,-1:00,"Azores, Cape Verde Islands",258
1362,22nd Ave,Red Rock,Saskatchewan,Canada,S2W 3G2,-82.8737,102.8910,+11:00,"Magadan, Solomon Islands, New Caledonia",259
9818,Koldingvej,Askeby,Sjælland,Denmark,97435,-61.3696,121.6489,+2:00,"Kaliningrad, South Africa",260
3943,Rue de la Gare,Versailles,Corrèze,France,46964,54.7714,-20.3051,-10:00,Hawaii,261
2346,Kastanienweg,Limbach-Oberfrohna,Niedersachsen,Germany,81566,55.1008,-119.5879,-7:00,Mountain Time (US & Canada),262
6629,Calle del Pez,Pontevedra,Galicia,Spain,42114,11.8485,-21.7640,+2:00,"Kaliningrad, South Africa",263
9559,Wiesenstraße,Lage,Bremen,Germany,28452,-22.9888,-69.7621,+10:00,"Eastern Australia, Guam, Vladivostok",264
3905,Buchenweg,Uebigau-Wahrenbrück,Bremen,Germany,19687,55.7021,171.4769,+9:30,"Adelaide, Darwin",265
4374,جمهوری اسلامی,قدس,تهران,Iran,28704,-31.5188,-23.8031,+5:45,Kathmandu,266
282,Myllypuronkatu,Outokumpu,Finland Proper,Finland,84751,47.8928,-34.0052,-3:30,Newfoundland,267
9682,Manor Road,City of London,Lincolnshire,United Kingdom,UN97 8FP,-74.1728,150.2950,+5:45,Kathmandu,268
9179,Woodlawn Avenue,Limerick,Cavan,Ireland,47241,-86.1684,51.7909,+7:00,"Bangkok, Hanoi, Jakarta",269
5164,Avenida de Castilla,Valladolid,Cataluña,Spain,10112,-47.0557,160.0140,+3:00,"Baghdad, Riyadh, Moscow, St. Petersburg",270
5104,Calle de Arganzuela,Granada,Aragón,Spain,10878,37.7304,-147.0591,-12:00,"Eniwetok, Kwajalein",271
3947,E North St,Orange,Northern Territory,Australia,7600,-19.8361,84.0284,-11:00,"Midway Island, Samoa",272
8386,Rotuaari,Ikaalinen,South Karelia,Finland,55030,-6.7039,67.0770,+11:00,"Magadan, Solomon Islands, New Caledonia",273
501,Taylor St,Hobart,Victoria,Australia,3978,58.7921,144.8770,+9:00,"Tokyo, Seoul, Osaka, Sapporo, Yakutsk",274
2374,Calle de La Luna,Pamplona,Ceuta,Spain,43078,62.3084,59.1358,0:00,"Western Europe Time, London, Lisbon, Casablanca",275
3769,واعظی,کاشان,فارس,Iran,40522,85.6714,-74.2012,+4:00,"Abu Dhabi, Muscat, Baku, Tbilisi",276
7492,Depaul Dr,Bowral,South Australia,Australia,5946,-83.5379,-21.2735,+10:00,"Eastern Australia, Guam, Vladivostok",277
7627,Belog Orla,Kovin,Nišava,Serbia,13609,4.7193,96.5313,-6:00,"Central Time (US & Canada), Mexico City",278
9049,Korkeavuorenkatu,Hirvensalmi,South Karelia,Finland,70059,-52.9282,15.2523,-6:00,"Central Time (US & Canada), Mexico City",279
3632,Jones Road,Clonakilty,Kilkenny,Ireland,20948,88.2488,138.4833,-2:00,Mid-Atlantic,280
9692,Dieppe Ave,Lafontaine,Northwest Territories,Canada,H4R 1O2,83.6757,-78.5176,+1:00,"Brussels, Copenhagen, Madrid, Paris",281
2099,Calle Zimbabwe,Texistepec,Coahuila,Mexico,24386,28.4207,115.0053,+2:00,"Kaliningrad, South Africa",282
906,Sampige Rd,Nagaon,Manipur,India,47790,-18.3993,100.7253,-5:00,"Eastern Time (US & Canada), Bogota, Lima",283
6850,Frits Kiærs vei,Knarvik,Bergen,Norway,7711,-11.8950,-164.8427,-8:00,Pacific Time (US & Canada),284
3229,Leonili Zagladi,Chuguyiv,Dnipropetrovska,Ukraine,12590,-82.9500,62.2427,-8:00,Pacific Time (US & Canada),285
5116,Arctic Way,Carleton,Yukon,Canada,S1F 0L0,-59.7267,-35.0633,-7:00,Mountain Time (US & Canada),286
7349,Virmenskiy provulok,Skole,Sumska,Ukraine,41917,8.4936,-22.8072,+3:30,Tehran,287
6546,Maple Ave,Russell,British Columbia,Canada,N4T 1H8,12.8525,100.1653,+10:00,"Eastern Australia, Guam, Vladivostok",288
5494,Rue de Gerland,Trimbach,Uri,Switzerland,9987,69.9523,147.5400,-4:00,"Atlantic Time (Canada), Caracas, La Paz",289
1276,Dådyrvej,Nykøbing F,Sjælland,Denmark,48645,-22.8598,-145.7945,+5:45,Kathmandu,290
9795,Pockrus Page Rd,Steilacoom,Nebraska,United States,90967,65.3561,77.9743,+3:30,Tehran,291
4414,Peatonal El Salvador,San Andrés Cholula,Hidalgo,Mexico,10064,-17.2880,27.8408,-1:00,"Azores, Cape Verde Islands",292
5174,Jon P. Erliens vei,Sånum,Vestfold,Norway,2024,-52.5209,-60.9336,0:00,"Western Europe Time, London, Lisbon, Casablanca",293
1744,Arctic Way,Trenton,Manitoba,Canada,U5X 1D1,49.6937,168.8547,+5:00,"Ekaterinburg, Islamabad, Karachi, Tashkent",294
4940,Lovers Ln,Princeton,Wisconsin,United States,57703,52.3873,127.2570,+5:30,"Bombay, Calcutta, Madras, New Delhi",295
5853,Eje vial México,San Juan Cuautlancingo,Sonora,Mexico,42037,21.0652,-179.0360,+1:00,"Brussels, Copenhagen, Madrid, Paris",296
5153,Oak Ridge Ln,Tyler,Minnesota,United States,59596,76.5332,157.1840,+5:45,Kathmandu,297
4281,Mannerheimintie,Marttila,South Karelia,Finland,29175,54.7102,-150.2743,-11:00,"Midway Island, Samoa",298
8846,Stanislavskog,Krupanj,Rasina,Serbia,63666,25.8475,74.6797,-6:00,"Central Time (US & Canada), Mexico City",299
210,پارک لاله,گلستان,همدان,Iran,42591,-57.3793,-132.8713,+11:00,"Magadan, Solomon Islands, New Caledonia",300
4605,Hogan St,Port Macquarie,South Australia,Australia,4507,0.8577,-8.9876,-8:00,Pacific Time (US & Canada),301
4346,Rue du Stade,Angers,Côtes-D'Armor,France,42938,-5.3145,-138.4171,-2:00,Mid-Atlantic,302
8214,Avenida de América,Valladolid,Región de Murcia,Spain,10599,-55.3763,12.6062,-9:00,Alaska,303
2377,Rua Vinte E Um,São Bernardo do Campo,Amapá,Brazil,23597,-61.9476,9.8106,+1:00,"Brussels, Copenhagen, Madrid, Paris",304
8805,Myllypuronkatu,Luumäki,North Karelia,Finland,93084,33.5554,-129.4528,+9:00,"Tokyo, Seoul, Osaka, Sapporo, Yakutsk",305
8626,School Lane,Drogheda,Cork City,Ireland,59091,-42.6968,-13.8003,+8:00,"Beijing, Perth, Singapore, Hong Kong",306
1163,Morelvej,Roskilde,Danmark,Denmark,22377,-50.8513,19.0770,+5:30,"Bombay, Calcutta, Madras, New Delhi",307
4797,Henry Street,Portmarnock,Wexford,Ireland,43856,80.5138,5.8545,-2:00,Mid-Atlantic,308
1199,Main St,Sandy Lake,Manitoba,Canada,S4V 6W5,-88.2617,161.7220,-3:30,Newfoundland,309
6487,Calle del Pez,Logroño,Islas Baleares,Spain,41035,-50.4877,148.5979,-10:00,Hawaii,310
9345,Dorfstraße,Bad Langensalza,Bremen,Germany,68418,-51.9758,159.6645,-6:00,"Central Time (US & Canada), Mexico City",311
8855,Manners Street,Lower Hutt,Taranaki,New Zealand,76260,-5.9712,-72.7212,-12:00,"Eniwetok, Kwajalein",312
4208,Bogensevej,Amager,Nordjylland,Denmark,78525,87.8422,79.2792,+3:30,Tehran,313
8906,Lakeshore Rd,Bueblo,New Jersey,United States,34244,-77.9666,43.0676,-3:30,Newfoundland,314
4797,Puhinui Road,Rotorua,Hawke'S Bay,New Zealand,78400,88.6851,100.7209,-4:00,"Atlantic Time (Canada), Caracas, La Paz",315
9758,Frances Ct,Hobart,Australian Capital Territory,Australia,3565,-22.9103,109.3952,+7:00,"Bangkok, Hanoi, Jakarta",316
9449,Pirkankatu,Kaavi,Northern Savonia,Finland,97466,18.9163,-103.4630,+5:00,"Ekaterinburg, Islamabad, Karachi, Tashkent",317
1281,Klompmakkerspaad,Zwarsluis,Drenthe,Netherlands,0869 ZZ,25.3595,23.6172,+9:30,"Adelaide, Darwin",318
95,Talstraße,Herzogenaurach,Nordrhein-Westfalen,Germany,47476,-33.2624,74.5961,-11:00,"Midway Island, Samoa",319
4284,Droevendal,Hoornsterzwaag,Groningen,Netherlands,6144 CO,85.4474,-43.0439,-12:00,"Eniwetok, Kwajalein",320
3292,Avenue Jean-Jaurès,Aubervilliers,Mayotte,France,25811,-46.2540,-41.1182,0:00,"Western Europe Time, London, Lisbon, Casablanca",321
6467,Hämeentie,Sievi,Central Ostrobothnia,Finland,50878,79.4658,-76.0435,+1:00,"Brussels, Copenhagen, Madrid, Paris",322
9731,Grove Road,Wolverhampton,Buckinghamshire,United Kingdom,DM02 5UH,-71.2120,129.6159,-10:00,Hawaii,323
3238,Avenida da Legalidade,Duque de Caxias,Espírito Santo,Brazil,90459,44.6663,-89.5303,-11:00,"Midway Island, Samoa",324
6062,Marine Parade,Wellington,Bay of Plenty,New Zealand,82753,64.1420,98.9186,-2:00,Mid-Atlantic,325
9031,Rua Vinte E Um,Atibaia,Tocantins,Brazil,40342,38.0567,-156.1535,+5:45,Kathmandu,326
8271,Corredor Vera,San Pedro Atlapulco,Nuevo Leon,Mexico,87227,-75.8943,169.1270,+3:00,"Baghdad, Riyadh, Moscow, St. Petersburg",327
6964,Mcclellan Rd,Hobart,South Australia,Australia,7830,11.8241,76.0336,+5:30,"Bombay, Calcutta, Madras, New Delhi",328
8878,Fincher Rd,Sunshine Coast,New South Wales,Australia,9112,29.6353,-82.3209,+5:45,Kathmandu,329
5745,Peel St,Oakville,Newfoundland and Labrador,Canada,X7S 4O1,-60.8979,-20.1535,+9:30,"Adelaide, Darwin",330
8819,Stevana Dimitrijevića ,Subotica,North Banat,Serbia,97776,-59.2087,56.4947,+4:30,Kabul,331
6887,Miller Ave,Bendigo,Queensland,Australia,2858,67.1184,57.4261,+5:45,Kathmandu,332
1876,Berliner Straße,Dassel,Saarland,Germany,87855,71.3908,-155.4539,-4:00,"Atlantic Time (Canada), Caracas, La Paz",333
4105,Coastal Highway,Selkirk,Alberta,Canada,U8U 9V7,-55.3291,-80.3197,+3:30,Tehran,334
7823,Anafartalar Cd,Muş,Sinop,Turkey,40194,-5.3767,-36.4542,+3:00,"Baghdad, Riyadh, Moscow, St. Petersburg",335
944,W Belt Line Rd,Amarillo,Missouri,United States,33450,-76.4420,153.7305,+4:00,"Abu Dhabi, Muscat, Baku, Tbilisi",336
6905,Ryttervej,Snertinge,Hovedstaden,Denmark,10028,76.0259,-162.6438,-1:00,"Azores, Cape Verde Islands",337
1948,Frederick Ave,Winfield,Alberta,Canada,R1Y 0E9,26.7159,-34.2946,-3:30,Newfoundland,338
3543,Kirkestræde,Nr Åby,Syddanmark,Denmark,74703,-8.6465,-112.7578,-4:00,"Atlantic Time (Canada), Caracas, La Paz",339
483,Potpećka,Bajina Bašta,South Bačka,Serbia,41265,-36.8388,121.8117,-6:00,"Central Time (US & Canada), Mexico City",340
9821,Uralska,Baturin,Lvivska,Ukraine,53984,4.3180,178.0969,+3:00,"Baghdad, Riyadh, Moscow, St. Petersburg",341
4135,هلال احمر,اردبیل,یزد,Iran,81756,74.7983,-40.0070,-1:00,"Azores, Cape Verde Islands",342
5876,Kinkelerweg,Lheebroek,Zeeland,Netherlands,6283 HV,-3.9283,130.7419,+10:00,"Eastern Australia, Guam, Vladivostok",343
4713,Montée Saint-Barthélémy,Ermensee,Jura,Switzerland,5063,2.4973,-151.2451,+3:00,"Baghdad, Riyadh, Moscow, St. Petersburg",344
2740,Ane Ahmatove,Brus,Raška,Serbia,88516,-21.7009,-122.5612,-10:00,Hawaii,345
5279,Skovbyvej,Overby Lyng,Syddanmark,Denmark,35164,-78.6171,-147.5257,+3:30,Tehran,346
3516,کارگر,قائم‌شهر,کردستان,Iran,13424,55.4103,-2.8190,-5:00,"Eastern Time (US & Canada), Bogota, Lima",347
4263,Rua Dom Pedro Ii ,Santa Luzia,Ceará,Brazil,35932,-22.0774,149.2927,-9:00,Alaska,348
6597,Continuación Cintrón,Aquismón,Estado de Mexico,Mexico,58138,5.8790,-159.3536,+4:00,"Abu Dhabi, Muscat, Baku, Tbilisi",349
7030,Charles St,Sutton,Yukon,Canada,E0Y 3I5,66.7213,-31.1078,+11:00,"Magadan, Solomon Islands, New Caledonia",350
9904,Lone Wolf Trail,Virginia Beach,Missouri,United States,56430,88.6507,-55.4352,+5:30,"Bombay, Calcutta, Madras, New Delhi",351
94,Živana Ilića,Trgovište,Bor,Serbia,85296,-5.3662,-179.4959,+9:30,"Adelaide, Darwin",352
3277,Rue de Cuire,Ufhusen,Fribourg,Switzerland,6736,-80.5927,-34.9400,-8:00,Pacific Time (US & Canada),353
887,Calle de Ángel García,Torrente,Castilla la Mancha,Spain,19332,-57.6999,26.7956,+4:00,"Abu Dhabi, Muscat, Baku, Tbilisi",354
2452,E Sandy Lake Rd,Tweed,Queensland,Australia,5186,-84.2784,162.2536,+4:00,"Abu Dhabi, Muscat, Baku, Tbilisi",355
5698,Anafartalar Cd,Çankırı,Bolu,Turkey,57726,19.3224,169.8212,+10:00,"Eastern Australia, Guam, Vladivostok",356
8794,Prospect Rd,Kalgoorlie,Tasmania,Australia,8187,-43.6797,-6.2418,+4:30,Kabul,357
2030,Disputed Rd,Carleton,New Brunswick,Canada,N2T 0K6,16.6516,-163.8614,+4:00,"Abu Dhabi, Muscat, Baku, Tbilisi",358
7137,Rasta Peth,Kolkata,Delhi,India,49693,-84.7838,177.4521,-9:00,Alaska,359
2242,Rua Principal,Ibirité,Pará,Brazil,27219,-23.6126,127.2123,-4:00,"Atlantic Time (Canada), Caracas, La Paz",360
3121,Rua Quinze de Novembro ,Guarapuava,Bahia,Brazil,95686,60.2640,96.2279,+3:30,Tehran,361
5031,Hulsdonkstraat,Lioessens,Overijssel,Netherlands,1858 IM,-85.0965,148.4070,+5:30,"Bombay, Calcutta, Madras, New Delhi",362
8650,Porodice Nikšić,Crna Trava,Pčinja,Serbia,57017,-1.0115,-42.4534,+4:00,"Abu Dhabi, Muscat, Baku, Tbilisi",363
9753,مجاهدین اسلام,یزد,خراسان جنوبی,Iran,61458,16.9858,50.0360,-1:00,"Azores, Cape Verde Islands",364
1140,Rue de L'Abbé-De-L'Épée,Rueil-Malmaison,Lot-et-Garonne,France,85049,11.0414,-134.6984,+9:00,"Tokyo, Seoul, Osaka, Sapporo, Yakutsk",365
1586,Tulpenweg,Bleicherode,Sachsen-Anhalt,Germany,97818,30.6584,15.0116,+11:00,"Magadan, Solomon Islands, New Caledonia",366
6293,15th St,Hudson,Newfoundland and Labrador,Canada,C9U 4O8,57.1207,92.2687,+6:00,"Almaty, Dhaka, Colombo",367
6372,17 شهریور,همدان,گیلان,Iran,72070,-13.7671,149.4181,+3:00,"Baghdad, Riyadh, Moscow, St. Petersburg",368
143,Shulyavska,Uzhgorod,Kirovogradska,Ukraine,63636,-87.3108,-84.5729,+1:00,"Brussels, Copenhagen, Madrid, Paris",369
2307,Camac St,Belgaum,Uttar Pradesh,India,35551,1.2002,167.3755,-6:00,"Central Time (US & Canada), Mexico City",370
5065,حجاب,قرچک,کرمانشاه,Iran,98949,79.5003,179.6311,-7:00,Mountain Time (US & Canada),371
6961,Anafartalar Cd,Amasya,Antalya,Turkey,82523,25.5200,-123.3240,+9:30,"Adelaide, Darwin",372
7538,Green Lane,Ballinasloe,Waterford,Ireland,54824,-60.4281,-142.4667,+2:00,"Kaliningrad, South Africa",373
9518,Quai Charles-De-Gaulle,Bettenhausen,Graubünden,Switzerland,7105,38.5043,-126.0403,+5:00,"Ekaterinburg, Islamabad, Karachi, Tashkent",374
209,Manchester Road,Truro,Highlands and Islands,United Kingdom,T8S 9JB,50.1131,26.6005,+2:00,"Kaliningrad, South Africa",375
1664,Cours Charlemagne,Nîmes,Guyane,France,82267,-51.6890,151.3518,+1:00,"Brussels, Copenhagen, Madrid, Paris",376
9153,Rua Vinte de Setembro,Simões Filho,Distrito Federal,Brazil,77427,-15.7385,117.8576,+5:45,Kathmandu,377
5812,Rue du Bon-Pasteur,Le Mans,Ariège,France,43082,-10.0776,153.4682,+5:45,Kathmandu,378
173,Dagaliveien,Bybrua,Nordland,Norway,0606,35.0540,65.6049,-11:00,"Midway Island, Samoa",379
2232,شهید کبیری طامه,گرگان,کهگیلویه و بویراحمد,Iran,11978,-46.8313,-170.6154,-3:00,"Brazil, Buenos Aires, Georgetown",380
4371,Filistin Cd,Mersin,Uşak,Turkey,49384,12.4389,-99.4893,-3:00,"Brazil, Buenos Aires, Georgetown",381
2644,Retorno Malta,Estancia de Animas,Sonora,Mexico,56846,-44.1061,-93.1132,+5:45,Kathmandu,382
759,Birkenweg,Stein,Hamburg,Germany,51479,21.0164,94.7341,-7:00,Mountain Time (US & Canada),383
9991,Rue du Stade,Versailles,Puy-de-Dôme,France,79745,71.0727,-155.1658,0:00,"Western Europe Time, London, Lisbon, Casablanca",384
949,Milovana Čelebića,Varvarin,South Bačka,Serbia,76005,56.1832,124.6628,-12:00,"Eniwetok, Kwajalein",385
6480,South Eastern Highway,New Plymouth,Marlborough,New Zealand,31275,-69.7558,69.2730,-3:00,"Brazil, Buenos Aires, Georgetown",386
7776,Živojina Stevanovića,Titel,Prizren,Serbia,64545,20.7622,-37.4499,-1:00,"Azores, Cape Verde Islands",387
4353,Jachthaven,Feinsum,Noord-Brabant,Netherlands,5017 AC,-31.0111,117.9321,-11:00,"Midway Island, Samoa",388
1977,Rautatienkatu,Sastamala,Lapland,Finland,23472,88.4768,-47.0858,-3:30,Newfoundland,389
7078,Rue du Cardinal-Gerlier,Maggia,Appenzell Innerrhoden,Switzerland,5439,61.9337,-153.2349,-10:00,Hawaii,390
8344,Courtenay Place,Invercargill,Bay of Plenty,New Zealand,26973,-39.6784,111.0044,-2:00,Mid-Atlantic,391
9496,Wildenveybakken,Vadsø,Troms - Romsa,Norway,7746,-53.6870,145.5642,-5:00,"Eastern Time (US & Canada), Bogota, Lima",392
1023,Lakeshore Rd,Aurora,Delaware,United States,99369,71.2440,62.3788,+8:00,"Beijing, Perth, Singapore, Hong Kong",393
4605,شورا,سبزوار,کردستان,Iran,53756,31.4430,-110.9874,+3:30,Tehran,394
9931,Byvangen,Snertinge,Nordjylland,Denmark,88054,-68.3027,53.3314,+5:45,Kathmandu,395
2102,Slovackogo,Kramatorsk,Zhitomirska,Ukraine,45581,-72.3269,60.5935,-2:00,Mid-Atlantic,396
8377,Flat Hoog Moersbergen,Bergentheim,Zuid-Holland,Netherlands,5955 WW,-41.6540,54.8457,+5:45,Kathmandu,397
1061,Depaul Dr,Medford,Georgia,United States,96896,-24.5005,-37.0969,+6:00,"Almaty, Dhaka, Colombo",398
5822,Place du 8 Février 1962,Boussens,Schwyz,Switzerland,4218,0.2859,139.9868,+5:30,"Bombay, Calcutta, Madras, New Delhi",399
963,Rautatienkatu,Multia,Ostrobothnia,Finland,72409,84.2669,44.9160,+5:00,"Ekaterinburg, Islamabad, Karachi, Tashkent",400
5012,Continuación Norte Raya,Villa Adolfo López M. (El Tamar,Chiapas,Mexico,40799,87.3766,-75.8537,+4:00,"Abu Dhabi, Muscat, Baku, Tbilisi",401
493,Place du 8 Février 1962,Caen,Gers,France,41233,43.9596,-34.6983,-5:00,"Eastern Time (US & Canada), Bogota, Lima",402
5574,O'Connell Street,Clonakilty,Kerry,Ireland,19420,73.1691,70.3476,+5:30,"Bombay, Calcutta, Madras, New Delhi",403
9415,Rosenstraße,Daun,Sachsen,Germany,45802,79.1863,-124.9155,+3:30,Tehran,404
8120,Osmog Marta,Sremska Mitrovica,Jablanica,Serbia,46431,-45.0601,-39.1137,-2:00,Mid-Atlantic,405
7036,Avenida de Castilla,Gandía,Melilla,Spain,51444,-14.3776,45.7195,+7:00,"Bangkok, Hanoi, Jakarta",406
9418,Rue de Gerland,Marseille,Ain,France,52668,7.2998,-176.6658,+5:45,Kathmandu,407
8965,Galway Road,Dublin,Cork,Ireland,91170,-6.4554,130.5398,0:00,"Western Europe Time, London, Lisbon, Casablanca",408
2286,Andador Coahuila de Zaragoza,Ejido Germinal,Chihuahua,Mexico,45510,3.8105,-139.1792,+7:00,"Bangkok, Hanoi, Jakarta",409
7984,Peel St,Borden,Saskatchewan,Canada,F2F 5T7,25.4377,-144.8989,+3:00,"Baghdad, Riyadh, Moscow, St. Petersburg",410
674,Bannerghatta Rd,Thanjavur,Assam,India,81371,55.9024,-120.5451,+11:00,"Magadan, Solomon Islands, New Caledonia",411
511,جمهوری,کرمانشاه,خراسان شمالی,Iran,91711,-78.6574,-119.0450,+8:00,"Beijing, Perth, Singapore, Hong Kong",412
2437,Bay Ave,Clinton,Québec,Canada,U2T 5R2,-12.5370,-161.6389,-4:00,"Atlantic Time (Canada), Caracas, La Paz",413
556,Chester Road,Wolverhampton,Lothian,United Kingdom,B8U 7GJ,-63.7349,20.6651,-3:00,"Brazil, Buenos Aires, Georgetown",414
5506,Burmanialan,Damwald,Flevoland,Netherlands,6211 SE,-51.8312,-38.0156,-10:00,Hawaii,415
2090,Im Winkel,Hirschberg,Rheinland-Pfalz,Germany,19720,-55.8026,-171.8884,+11:00,"Magadan, Solomon Islands, New Caledonia",416
3535,Adams St,Ballarat,Queensland,Australia,1062,-52.9231,-14.9964,+8:00,"Beijing, Perth, Singapore, Hong Kong",417
5156,Naiduthota,Nagpur,Delhi,India,71513,-1.3035,-171.1994,-12:00,"Eniwetok, Kwajalein",418
2229,Cedar St,Enterprise,Québec,Canada,C2D 7M2,83.2232,-161.9672,-5:00,"Eastern Time (US & Canada), Bogota, Lima",419
7668,Fairview St,Forney,Nebraska,United States,81915,58.3055,179.5129,+9:00,"Tokyo, Seoul, Osaka, Sapporo, Yakutsk",420
5167,Idrætsvej,Noerre Alslev,Sjælland,Denmark,25540,-55.6449,97.0729,+5:30,"Bombay, Calcutta, Madras, New Delhi",421
2355,Calle de Ángel García,Valladolid,País Vasco,Spain,96037,-1.2235,128.8867,-11:00,"Midway Island, Samoa",422
3784,Vestervænget,Lintrup,Midtjylland,Denmark,15781,-6.9296,50.2454,-8:00,Pacific Time (US & Canada),423
5087,High Street,Carrick-on-Shannon,Fingal,Ireland,93185,68.1790,-3.3239,-3:00,"Brazil, Buenos Aires, Georgetown",424
2282,پارک طالقانی,کرج,سیستان و بلوچستان,Iran,80228,85.3672,124.6285,+3:00,"Baghdad, Riyadh, Moscow, St. Petersburg",425
9563,Rua Três,Betim,Rio Grande do Sul,Brazil,22396,-40.0633,-127.5238,0:00,"Western Europe Time, London, Lisbon, Casablanca",426
9377,East Coast Road,Tauranga,Hawke'S Bay,New Zealand,60797,79.8019,63.9976,+6:00,"Almaty, Dhaka, Colombo",427
5939,Mevlana Cd,Sivas,Şırnak,Turkey,10442,38.4962,10.9287,+8:00,"Beijing, Perth, Singapore, Hong Kong",428
7676,E Sandy Lake Rd,Nashville,Virginia,United States,86934,-78.5150,121.2849,-9:00,Alaska,429
4847,Rotuaari,Mäntyharju,Finland Proper,Finland,38121,-40.1253,-28.6085,+2:00,"Kaliningrad, South Africa",430
1320,Coaker's Walk,Jalgaon,Jammu and Kashmir,India,64908,89.3424,-84.2505,-3:00,"Brazil, Buenos Aires, Georgetown",431
8172,Maçka Cd,Bolu,Iğdır,Turkey,65358,-6.1329,-131.5499,-3:00,"Brazil, Buenos Aires, Georgetown",432
2567,Trafalgar Street,Nelson,Manawatu-Wanganui,New Zealand,53648,-27.7303,157.1405,+8:00,"Beijing, Perth, Singapore, Hong Kong",433
4609,Kazimar St,Aligarh,Daman and Diu,India,46976,-25.2898,34.1593,+1:00,"Brussels, Copenhagen, Madrid, Paris",434
1830,Sølystvej,Aarhus N,Danmark,Denmark,98576,-16.1789,39.9746,+9:00,"Tokyo, Seoul, Osaka, Sapporo, Yakutsk",435
4483,شهید آقاسرمدیان,قزوین,کهگیلویه و بویراحمد,Iran,12401,44.4403,1.6079,-2:00,Mid-Atlantic,436
9101,Hermiankatu,Föglö,South Karelia,Finland,30255,44.0010,101.4481,+5:30,"Bombay, Calcutta, Madras, New Delhi",437
9074,Myllypuronkatu,Oripää,Satakunta,Finland,75133,-3.3338,49.9867,+5:00,"Ekaterinburg, Islamabad, Karachi, Tashkent",438
383,شهید بهشتی,اسلام‌شهر,قم,Iran,42220,-70.5313,-94.7880,-5:00,"Eastern Time (US & Canada), Bogota, Lima",439
2570,Ampliación Sur Carrera,Kilometro 30,Tamaulipas,Mexico,63715,5.0213,49.0066,-10:00,Hawaii,440
4830,Langebjergvej,Hammel,Danmark,Denmark,44989,-66.0282,93.1403,+11:00,"Magadan, Solomon Islands, New Caledonia",441
7077,Ijsselcentraleweg,Veelerveen,Limburg,Netherlands,7647 GZ,30.7298,4.2313,-2:00,Mid-Atlantic,442
2251,W 6th St,Shiloh,Massachusetts,United States,20925,-87.0897,174.0046,+3:00,"Baghdad, Riyadh, Moscow, St. Petersburg",443
2840,Avenue Paul Eluard,Créteil,Corse-du-Sud,France,76729,-39.4334,-101.9300,-7:00,Mountain Time (US & Canada),444
6929,Smokey Ln,Grand Rapids,Mississippi,United States,57443,-56.8231,-24.4549,-8:00,Pacific Time (US & Canada),445
3773,Charles St,Burlington,British Columbia,Canada,Z8K 8I4,-76.0886,-104.5458,-12:00,"Eniwetok, Kwajalein",446
5008,New Street,Bristol,Oxfordshire,United Kingdom,D8O 6RP,51.8005,111.3812,+4:30,Kabul,447
7674,E Center St,Coffs Harbour,Queensland,Australia,4789,-80.5422,89.8800,-12:00,"Eniwetok, Kwajalein",448
678,Rua São Paulo ,Feira de Santana,Rio de Janeiro,Brazil,11481,53.7915,-106.7803,+10:00,"Eastern Australia, Guam, Vladivostok",449
1920,Avenue Paul Eluard,Sempach,Luzern,Switzerland,6455,58.5529,-155.4589,+5:45,Kathmandu,450
6344,Kapellenweg,Ransbach-Baumbach,Mecklenburg-Vorpommern,Germany,18349,72.4469,174.6840,+6:00,"Almaty, Dhaka, Colombo",451
9692,Manchester Street,Hamilton,West Coast,New Zealand,58744,29.3521,3.9224,-2:00,Mid-Atlantic,452
5821,Atatürk Sk,Samsun,Ordu,Turkey,12974,80.5155,56.8260,-1:00,"Azores, Cape Verde Islands",453
2429,Depaul Dr,Oceanside,Indiana,United States,59106,-61.6262,-106.4207,-10:00,Hawaii,454
707,Park Road,Newport,Durham,United Kingdom,V63 8QY,-70.4387,-99.7822,-12:00,"Eniwetok, Kwajalein",455
8022,Nikole Tanurdžića ,Pirot,Pirot,Serbia,71268,87.0417,37.6021,+4:00,"Abu Dhabi, Muscat, Baku, Tbilisi",456
4066,Bannerghatta Rd,Ongole,Uttar Pradesh,India,52638,70.0138,7.0001,-4:00,"Atlantic Time (Canada), Caracas, La Paz",457
4298,Adonisweg,Langedijk,Zeeland,Netherlands,4171 WC,-43.1598,-99.3171,+2:00,"Kaliningrad, South Africa",458
7552,Calle de La Democracia,Córdoba,Comunidad Valenciana,Spain,50292,66.2339,-138.7956,+11:00,"Magadan, Solomon Islands, New Caledonia",459
7269,Pockrus Page Rd,Elk Grove,Washington,United States,61913,-58.7174,-16.6776,+9:00,"Tokyo, Seoul, Osaka, Sapporo, Yakutsk",460
9772,Østre Strandvej,Fredeikssund,Midtjylland,Denmark,31000,32.9589,-4.6686,-7:00,Mountain Time (US & Canada),461
3817,Edmund Gunterstraat,Kamperzeedijk,Flevoland,Netherlands,9561 JT,45.3560,-88.1482,-12:00,"Eniwetok, Kwajalein",462
8449,9th St,Southampton,Alberta,Canada,E3S 6K1,47.9911,-65.3006,-4:00,"Atlantic Time (Canada), Caracas, La Paz",463
4366,Travessa dos Açorianos,Arapongas,Goiás,Brazil,63509,-9.4019,161.2504,+4:00,"Abu Dhabi, Muscat, Baku, Tbilisi",464
7857,Rue Duguesclin,Lonay,Basel-Stadt,Switzerland,2733,38.0904,-120.5931,+5:30,"Bombay, Calcutta, Madras, New Delhi",465
5115,Anglesea Street,Gisborne,Manawatu-Wanganui,New Zealand,84223,-81.5697,-25.0185,+4:30,Kabul,466
9256,Rua Santa Maria ,Barueri,Pernambuco,Brazil,49957,54.9017,-81.3217,+9:30,"Adelaide, Darwin",467
8130,Het Haam,Cadier en Keer,Groningen,Netherlands,2002 MB,13.1798,-90.4895,+4:00,"Abu Dhabi, Muscat, Baku, Tbilisi",468
9750,Rua Rui Barbosa ,Cuiabá,Rio Grande do Norte,Brazil,75641,31.0689,61.8942,-1:00,"Azores, Cape Verde Islands",469
2660,S.A Rd,Anand,Sikkim,India,58929,-16.0701,54.7953,-12:00,"Eniwetok, Kwajalein",470
8753,Queens Road,Stirling,Greater Manchester,United Kingdom,J26 5JW,29.0398,-157.3198,-3:00,"Brazil, Buenos Aires, Georgetown",471
7271,Samaritan Dr,Wollongong,New South Wales,Australia,8889,89.3738,126.4968,+2:00,"Kaliningrad, South Africa",472
905,Rua Quatro,Sinop,Goiás,Brazil,92244,-13.8774,98.2756,-3:30,Newfoundland,473
8193,Ošljanska,Ivanjica,Moravica,Serbia,51839,-6.1205,101.2854,-8:00,Pacific Time (US & Canada),474
8706,Rue Dugas-Montbel,Balsthal,Luzern,Switzerland,3674,3.7258,131.4718,+3:30,Tehran,475
9376,Calle de La Democracia,Jerez de la Frontera,Andalucía,Spain,62097,-5.6539,-39.1194,-1:00,"Azores, Cape Verde Islands",476
3326,Rue Paul Bert,Perpignan,Val-D'Oise,France,92442,17.1835,92.7574,+5:30,"Bombay, Calcutta, Madras, New Delhi",477
2690,Rua Vinte E Um,Corumbá,Sergipe,Brazil,86290,-0.2187,-78.7915,+3:30,Tehran,478
2906,Mint St,Malda,Bihar,India,10387,34.5442,115.6332,-4:00,"Atlantic Time (Canada), Caracas, La Paz",479
6000,Rue du Moulin,Montpellier,Finistère,France,23137,47.4972,106.8894,+3:30,Tehran,480
3638,Istiklal Cd,Bilecik,Eskişehir,Turkey,36506,83.5788,83.8871,-7:00,Mountain Time (US & Canada),481
6848,Sao Tome Old Quarter,Allahabad,Punjab,India,40847,-53.1588,32.4711,-3:00,"Brazil, Buenos Aires, Georgetown",482
3334,Calle Papua Nueva Guinea,Copandaro,Guanajuato,Mexico,22565,61.5748,43.6974,+11:00,"Magadan, Solomon Islands, New Caledonia",483
4812,Shivajinagar,Bilaspur,Kerala,India,12234,35.0722,123.2256,-8:00,Pacific Time (US & Canada),484
7198,Westmoreland Street,Roscrea,Limerick,Ireland,57569,7.5631,-26.2779,+3:30,Tehran,485
1081,South Street,Dundee,Dyfed,United Kingdom,J0W 7WW,71.4562,-29.8736,+5:30,"Bombay, Calcutta, Madras, New Delhi",486
247,Park Lane,Winchester,Dumfries and Galloway,United Kingdom,XJ80 2EY,-50.2228,118.7449,-12:00,"Eniwetok, Kwajalein",487
7578,Invasiestraat,Holtum,Utrecht,Netherlands,7481 HH,-83.9950,68.0597,+4:00,"Abu Dhabi, Muscat, Baku, Tbilisi",488
50,Rue du Village,Willisau,Aargau,Switzerland,8344,-2.8345,89.8565,-2:00,Mid-Atlantic,489
1810,Bernt Ankers gate,Skatval,Oppland,Norway,5685,59.3091,165.4274,+6:00,"Almaty, Dhaka, Colombo",490
6646,Lake Road,Hastings,Bay of Plenty,New Zealand,36692,-50.1636,120.6920,-1:00,"Azores, Cape Verde Islands",491
1463,Kasturba Rd,Gandhinagar,Chandigarh,India,75377,-10.2948,66.8553,-9:00,Alaska,492
2095,Bergstoep,Koggenland,Zuid-Holland,Netherlands,2201 MV,-89.8208,138.9796,+5:00,"Ekaterinburg, Islamabad, Karachi, Tashkent",493
9174,Victoria Road,Malahide,Kilkenny,Ireland,31752,-6.1871,-76.6586,+4:30,Kabul,494
2090,Diagonal Albania,Bucerías,Nayarit,Mexico,84391,21.6207,24.3227,+8:00,"Beijing, Perth, Singapore, Hong Kong",495
1510,Cederhage,Kommerzijl,Drenthe,Netherlands,5508 YZ,19.5849,160.3770,0:00,"Western Europe Time, London, Lisbon, Casablanca",496
2312,The Green,Portarlington,Galway,Ireland,79746,-6.9241,-118.2612,-9:00,Alaska,497
3373,Marshala Ribalka,Kopichinci,Ternopilska,Ukraine,61109,17.1093,49.3981,-1:00,"Azores, Cape Verde Islands",498
7155,Timber Wolf Trail,Gladstone,Australian Capital Territory,Australia,5293,68.6461,163.2228,-7:00,Mountain Time (US & Canada),499
